0 COSMOS 1410
1 13589U 82096A   13281.83204884  .00000049  00000-0  28216-3 0  3240
2 13589 082.6082 069.2700 0006109 359.8835 143.9910 12.42281438408515
0 COSMOS 1410
1 13589U 82096A   13283.83796277  .00000025  00000-0  10646-3 0  3257
2 13589 082.6086 068.0417 0006027 355.5267 114.8406 12.42281843408766
0 COSMOS 1410
1 13589U 82096A   13285.86439900 -.00000005  00000-0 -10675-3 0  3262
2 13589 082.6091 066.8008 0005951 350.7860 177.8116 12.42282032409012
0 COSMOS 1410
1 13589U 82096A   13287.86564483 -.00000010  00000-0 -14753-3 0  3277
2 13589 082.6098 065.5751 0005825 344.9886 129.2398 12.42281486409265
0 COSMOS 1410
1 13589U 82096A   13290.04468471  .00000001  00000-0 -64759-4 0  3283
2 13589 082.6102 064.2411 0005767 339.6202 154.9814 12.42281247409531
0 COSMOS 1410
1 13589U 82096A   13292.43811543  .00000009  00000-0 -84644-5 0  3295
2 13589 082.6106 062.7759 0005681 333.9754 059.3295 12.42281291409830
0 COSMOS 1410
1 13589U 82096A   13294.45812778 -.00000004  00000-0 -98441-4 0  3307
2 13589 082.6110 061.5394 0005631 329.0269 093.7893 12.42281378410080
